<?xml version="1.0" encoding="UTF-8"?>
<ndm xmlns:xsi="http://www.w3.org/2001/XMLSchema-instance" xsi:noNamespaceSchemaLocation="https://sanaregistry.org/r/ndmxml_unqualified/ndmxml-2.0.0-master-2.0.xsd">
<omm id="CCSDS_OMM_VERS" version="2.0">
<header><CREATION_DATE/><ORIGINATOR/></header><body><segment><metadata><OBJECT_NAME>ORBCOMM-X</OBJECT_NAME><OBJECT_ID>1991-050C</OBJECT_ID><CENTER_NAME>EARTH</CENTER_NAME><REF_FRAME>TEME</REF_FRAME><TIME_SYSTEM>UTC</TIME_SYSTEM><MEAN_ELEMENT_THEORY>SGP4</MEAN_ELEMENT_THEORY></metadata><data><meanElements><EPOCH>2024-10-08T18:05:38.324256</EPOCH><MEAN_MOTION>14.42805150</MEAN_MOTION><ECCENTRICITY>.0003008</ECCENTRICITY><INCLINATION>98.3776</INCLINATION><RA_OF_ASC_NODE>348.1004</RA_OF_ASC_NODE><ARG_OF_PERICENTER>209.7582</ARG_OF_PERICENTER><MEAN_ANOMALY>150.3437</MEAN_ANOMALY></meanElements><tleParameters><EPHEMERIS_TYPE>0</EPHEMERIS_TYPE><CLASSIFICATION_TYPE>U</CLASSIFICATION_TYPE><NORAD_CAT_ID>21576</NORAD_CAT_ID><ELEMENT_SET_NO>999</ELEMENT_SET_NO><REV_AT_EPOCH>74607</REV_AT_EPOCH><BSTAR>.94222E-3</BSTAR><MEAN_MOTION_DOT>.31E-4</MEAN_MOTION_DOT><MEAN_MOTION_DDOT>0</MEAN_MOTION_DDOT></tleParameters></data></segment></body></omm>
<omm id="CCSDS_OMM_VERS" version="2.0">
<header><CREATION_DATE/><ORIGINATOR/></header><body><segment><metadata><OBJECT_NAME>ORBCOMM FM01</OBJECT_NAME><OBJECT_ID>1995-017A</OBJECT_ID><CENTER_NAME>EARTH</CENTER_NAME><REF_FRAME>TEME</REF_FRAME><TIME_SYSTEM>UTC</TIME_SYSTEM><MEAN_ELEMENT_THEORY>SGP4</MEAN_ELEMENT_THEORY></metadata><data><meanElements><EPOCH>2024-10-08T11:27:16.235136</EPOCH><MEAN_MOTION>14.83623280</MEAN_MOTION><ECCENTRICITY>.0007456</ECCENTRICITY><INCLINATION>69.9676</INCLINATION><RA_OF_ASC_NODE>339.1098</RA_OF_ASC_NODE><ARG_OF_PERICENTER>329.0941</ARG_OF_PERICENTER><MEAN_ANOMALY>30.9771</MEAN_ANOMALY></meanElements><tleParameters><EPHEMERIS_TYPE>0</EPHEMERIS_TYPE><CLASSIFICATION_TYPE>U</CLASSIFICATION_TYPE><NORAD_CAT_ID>23545</NORAD_CAT_ID><ELEMENT_SET_NO>999</ELEMENT_SET_NO><REV_AT_EPOCH>57508</REV_AT_EPOCH><BSTAR>.58619E-2</BSTAR><MEAN_MOTION_DOT>.48725E-3</MEAN_MOTION_DOT><MEAN_MOTION_DDOT>0</MEAN_MOTION_DDOT></tleParameters></data></segment></body></omm>
<omm id="CCSDS_OMM_VERS" version="2.0">
<header><CREATION_DATE/><ORIGINATOR/></header><body><segment><metadata><OBJECT_NAME>ORBCOMM FM02</OBJECT_NAME><OBJECT_ID>1995-017B</OBJECT_ID><CENTER_NAME>EARTH</CENTER_NAME><REF_FRAME>TEME</REF_FRAME><TIME_SYSTEM>UTC</TIME_SYSTEM><MEAN_ELEMENT_THEORY>SGP4</MEAN_ELEMENT_THEORY></metadata><data><meanElements><EPOCH>2024-10-08T12:56:47.056128</EPOCH><MEAN_MOTION>14.83430758</MEAN_MOTION><ECCENTRICITY>.0009227</ECCENTRICITY><INCLINATION>69.9700</INCLINATION><RA_OF_ASC_NODE>358.6020</RA_OF_ASC_NODE><ARG_OF_PERICENTER>329.5431</ARG_OF_PERICENTER><MEAN_ANOMALY>30.5183</MEAN_ANOMALY></meanElements><tleParameters><EPHEMERIS_TYPE>0</EPHEMERIS_TYPE><CLASSIFICATION_TYPE>U</CLASSIFICATION_TYPE><NORAD_CAT_ID>23546</NORAD_CAT_ID><ELEMENT_SET_NO>999</ELEMENT_SET_NO><REV_AT_EPOCH>57473</REV_AT_EPOCH><BSTAR>.67359E-2</BSTAR><MEAN_MOTION_DOT>.55814E-3</MEAN_MOTION_DOT><MEAN_MOTION_DDOT>0</MEAN_MOTION_DDOT></tleParameters></data></segment></body></omm>
<omm id="CCSDS_OMM_VERS" version="2.0">
<header><CREATION_DATE/><ORIGINATOR/></header><body><segment><metadata><OBJECT_NAME>ORBCOMM FM08</OBJECT_NAME><OBJECT_ID>1997-084A</OBJECT_ID><CENTER_NAME>EARTH</CENTER_NAME><REF_FRAME>TEME</REF_FRAME><TIME_SYSTEM>UTC</TIME_SYSTEM><MEAN_ELEMENT_THEORY>SGP4</MEAN_ELEMENT_THEORY></metadata><data><meanElements><EPOCH>2024-10-08T14:12:48.497472</EPOCH><MEAN_MOTION>14.43827502</MEAN_MOTION><ECCENTRICITY>.0006864</ECCENTRICITY><INCLINATION>45.0118</INCLINATION><RA_OF_ASC_NODE>134.0471</RA_OF_ASC_NODE><ARG_OF_PERICENTER>64.1469</ARG_OF_PERICENTER><MEAN_ANOMALY>296.0089</MEAN_ANOMALY></meanElements><tleParameters><EPHEMERIS_TYPE>0</EPHEMERIS_TYPE><CLASSIFICATION_TYPE>U</CLASSIFICATION_TYPE><NORAD_CAT_ID>25112</NORAD_CAT_ID><ELEMENT_SET_NO>999</ELEMENT_SET_NO><REV_AT_EPOCH>40515</REV_AT_EPOCH><BSTAR>.41346E-2</BSTAR><MEAN_MOTION_DOT>.14107E-3</MEAN_MOTION_DOT><MEAN_MOTION_DDOT>0</MEAN_MOTION_DDOT></tleParameters></data></segment></body></omm>
<omm id="CCSDS_OMM_VERS" version="2.0">
<header><CREATION_DATE/><ORIGINATOR/></header><body><segment><metadata><OBJECT_NAME>ORBCOMM FM10</OBJECT_NAME><OBJECT_ID>1997-084B</OBJECT_ID><CENTER_NAME>EARTH</CENTER_NAME><REF_FRAME>TEME</REF_FRAME><TIME_SYSTEM>UTC</TIME_SYSTEM><MEAN_ELEMENT_THEORY>SGP4</MEAN_ELEMENT_THEORY></metadata><data><meanElements><EPOCH>2024-10-08T17:58:29.920224</EPOCH><MEAN_MOTION>14.43700436</MEAN_MOTION><ECCENTRICITY>.0004375</ECCENTRICITY><INCLINATION>45.0140</INCLINATION><RA_OF_ASC_NODE>135.2961</RA_OF_ASC_NODE><ARG_OF_PERICENTER>34.6483</ARG_OF_PERICENTER><MEAN_ANOMALY>325.4653</MEAN_ANOMALY></meanElements><tleParameters><EPHEMERIS_TYPE>0</EPHEMERIS_TYPE><CLASSIFICATION_TYPE>U</CLASSIFICATION_TYPE><NORAD_CAT_ID>25113</NORAD_CAT_ID><ELEMENT_SET_NO>999</ELEMENT_SET_NO><REV_AT_EPOCH>40516</REV_AT_EPOCH><BSTAR>.3442E-2</BSTAR><MEAN_MOTION_DOT>.11682E-3</MEAN_MOTION_DOT><MEAN_MOTION_DDOT>0</MEAN_MOTION_DDOT></tleParameters></data></segment></body></omm>
<omm id="CCSDS_OMM_VERS" version="2.0">
<header><CREATION_DATE/><ORIGINATOR/></header><body><segment><metadata><OBJECT_NAME>ORBCOMM FM11</OBJECT_NAME><OBJECT_ID>1997-084C</OBJECT_ID><CENTER_NAME>EARTH</CENTER_NAME><REF_FRAME>TEME</REF_FRAME><TIME_SYSTEM>UTC</TIME_SYSTEM><MEAN_ELEMENT_THEORY>SGP4</MEAN_ELEMENT_THEORY></metadata><data><meanElements><EPOCH>2024-10-08T20:26:51.032256</EPOCH><MEAN_MOTION>14.43512169</MEAN_MOTION><ECCENTRICITY>.0005234</ECCENTRICITY><INCLINATION>45.0121</INCLINATION><RA_OF_ASC_NODE>135.0202</RA_OF_ASC_NODE><ARG_OF_PERICENTER>34.5835</ARG_OF_PERICENTER><MEAN_ANOMALY>325.5355</MEAN_ANOMALY></meanElements><tleParameters><EPHEMERIS_TYPE>0</EPHEMERIS_TYPE><CLASSIFICATION_TYPE>U</CLASSIFICATION_TYPE><NORAD_CAT_ID>25114</NORAD_CAT_ID><ELEMENT_SET_NO>999</ELEMENT_SET_NO><REV_AT_EPOCH>40516</REV_AT_EPOCH><BSTAR>.2269E-2</BSTAR><MEAN_MOTION_DOT>.7617E-4</MEAN_MOTION_DOT><MEAN_MOTION_DDOT>0</MEAN_MOTION_DDOT></tleParameters></data></segment></body></omm>
<omm id="CCSDS_OMM_VERS" version="2.0">
<header><CREATION_DATE/><ORIGINATOR/></header><body><segment><metadata><OBJECT_NAME>ORBCOMM FM12</OBJECT_NAME><OBJECT_ID>1997-084D</OBJECT_ID><CENTER_NAME>EARTH</CENTER_NAME><REF_FRAME>TEME</REF_FRAME><TIME_SYSTEM>UTC</TIME_SYSTEM><MEAN_ELEMENT_THEORY>SGP4</MEAN_ELEMENT_THEORY></metadata><data><meanElements><EPOCH>2024-10-08T17:55:00.678432</EPOCH><MEAN_MOTION>14.43489991</MEAN_MOTION><ECCENTRICITY>.0004306</ECCENTRICITY><INCLINATION>45.0126</INCLINATION><RA_OF_ASC_NODE>135.2744</RA_OF_ASC_NODE><ARG_OF_PERICENTER>35.6242</ARG_OF_PERICENTER><MEAN_ANOMALY>324.4895</MEAN_ANOMALY></meanElements><tleParameters><EPHEMERIS_TYPE>0</EPHEMERIS_TYPE><CLASSIFICATION_TYPE>U</CLASSIFICATION_TYPE><NORAD_CAT_ID>25115</NORAD_CAT_ID><ELEMENT_SET_NO>999</ELEMENT_SET_NO><REV_AT_EPOCH>40515</REV_AT_EPOCH><BSTAR>.40189E-2</BSTAR><MEAN_MOTION_DOT>.13609E-3</MEAN_MOTION_DOT><MEAN_MOTION_DDOT>0</MEAN_MOTION_DDOT></tleParameters></data></segment></body></omm>
<omm id="CCSDS_OMM_VERS" version="2.0">
<header><CREATION_DATE/><ORIGINATOR/></header><body><segment><metadata><OBJECT_NAME>ORBCOMM FM09</OBJECT_NAME><OBJECT_ID>1997-084E</OBJECT_ID><CENTER_NAME>EARTH</CENTER_NAME><REF_FRAME>TEME</REF_FRAME><TIME_SYSTEM>UTC</TIME_SYSTEM><MEAN_ELEMENT_THEORY>SGP4</MEAN_ELEMENT_THEORY></metadata><data><meanElements><EPOCH>2024-10-08T18:17:17.012544</EPOCH><MEAN_MOTION>14.43428392</MEAN_MOTION><ECCENTRICITY>.0005256</ECCENTRICITY><INCLINATION>45.0133</INCLINATION><RA_OF_ASC_NODE>135.9370</RA_OF_ASC_NODE><ARG_OF_PERICENTER>17.2602</ARG_OF_PERICENTER><MEAN_ANOMALY>342.8426</MEAN_ANOMALY></meanElements><tleParameters><EPHEMERIS_TYPE>0</EPHEMERIS_TYPE><CLASSIFICATION_TYPE>U</CLASSIFICATION_TYPE><NORAD_CAT_ID>25116</NORAD_CAT_ID><ELEMENT_SET_NO>999</ELEMENT_SET_NO><REV_AT_EPOCH>40515</REV_AT_EPOCH><BSTAR>.40615E-2</BSTAR><MEAN_MOTION_DOT>.13738E-3</MEAN_MOTION_DOT><MEAN_MOTION_DDOT>0</MEAN_MOTION_DDOT></tleParameters></data></segment></body></omm>

</ndm>
