ORBCOMM-X               
1 21576U 91050C   24282.75391579  .00003100  00000+0  94222-3 0  9995
2 21576  98.3776 348.1004 0003008 209.7582 150.3437 14.42805150746074
ORBCOMM FM01            
1 23545U 95017A   24282.47727124  .00048725  00000+0  58619-2 0  9999
2 23545  69.9676 339.1098 0007456 329.0941  30.9771 14.83623280575086
ORBCOMM FM02            
1 23546U 95017B   24282.53943352  .00055814  00000+0  67359-2 0  9998
2 23546  69.9700 358.6020 0009227 329.5431  30.5183 14.83430758574733
ORBCOMM FM08            
1 25112U 97084A   24282.59222798  .00014107  00000+0  41346-2 0  9993
2 25112  45.0118 134.0471 0006864  64.1469 296.0089 14.43827502405151
ORBCOMM FM10            
1 25113U 97084B   24282.74895741  .00011682  00000+0  34420-2 0  9995
2 25113  45.0140 135.2961 0004375  34.6483 325.4653 14.43700436405168
ORBCOMM FM11            
1 25114U 97084C   24282.85197954  .00007617  00000+0  22690-2 0  9998
2 25114  45.0121 135.0202 0005234  34.5835 325.5355 14.43512169405163
ORBCOMM FM12            
1 25115U 97084D   24282.74653563  .00013609  00000+0  40189-2 0  9991
2 25115  45.0126 135.2744 0004306  35.6242 324.4895 14.43489991405157
ORBCOMM FM09            
1 25116U 97084E   24282.76200246  .00013738  00000+0  40615-2 0  9997
2 25116  45.0133 135.9370 0005256  17.2602 342.8426 14.43428392405151
